RAVAN                   
1 41849U 16067B   18341.49770030  .00000033  00000-0  79967-5 0  9992
2 41849  97.9243  72.8184 0007401 313.0979  46.9623 14.98020087113077
CELTEE 1                
1 41850U 16067C   18341.22763096 -.00000194  00000-0 -11593-4 0  9999
2 41850  97.9215  71.6701 0007756 315.5412  44.5186 14.96912936112980
OPTICUBE 04             
1 41851U 16067D   18341.47875232  .00000582  00000-0  56204-4 0  9990
2 41851  97.9210  71.7861 0007596 316.2851  43.7767 14.96738408113012
AEROCUBE 8D             
1 41852U 16067E   18341.19938247  .00000673  00000-0  64383-4 0  9994
2 41852  97.9217  71.3329 0008390 314.7695  45.2842 14.96598584112959
AEROCUBE 8C             
1 41853U 16067F   18341.48511831  .00000351  00000-0  36132-4 0  9997
2 41853  97.9222  71.5734 0008837 316.5387  43.5137 14.96567939112994
PROMETHEUS 2-1          
1 41854U 16067G   18341.20910809  .00000932  00000-0  86880-4 0  9996
2 41854  97.9227  71.3522 0009011 316.1422  43.9083 14.96723323112955
PROMETHEUS 2-3          
1 41855U 16067H   18341.47926343  .00000826  00000-0  77570-4 0  9994
2 41855  97.9230  71.6348 0009192 315.7058  44.3426 14.96724951112997
ITF-2                   
1 41932U 98067KU  18341.71334241  .00224010  32430-4  40636-3 0  9998
2 41932  51.6216 155.3005 0004292 225.7010 134.3648 16.01023705108288
INS-1B                  
1 41954U 17008G   18341.48515610  .00001157  00000-0  51450-4 0  9999
2 41954  97.4265  43.8398 0010955 103.4848 256.7610 15.23453765100381
BGUSAT                  
1 41999U 17008BD  18341.46050019  .00001920  00000-0  79058-4 0  9995
2 41999  97.4322  45.4364 0009908 117.5866 242.6379 15.25307849 99833
DIDO-2                  
1 42000U 17008BE  18341.41128862  .00000849  00000-0  38493-4 0  9993
2 42000  97.4281  44.2720 0010074 119.2639 240.9606 15.23536775 99774
PEASSS                  
1 42015U 17008BV  18341.49105895  .00001041  00000-0  45338-4 0  9999
2 42015  97.4283  45.0269 0007877 123.1703 237.0291 15.24411842100310
AL-FARABI 1             
1 42016U 17008BW  18341.43104611  .00001357  00000-0  57361-4 0  9998
2 42016  97.4293  45.3076 0007768 123.3699 236.8283 15.24927896100449
NAYIF-1 (EO-88)         
1 42017U 17008BX  18341.68485841  .00001408  00000-0  59369-4 0  9990
2 42017  97.4291  45.5679 0007733 122.5950 237.6035 15.24956609100507
HAVELSAT                
1 42700U 98067LH  18341.88153828  .00085812  00000-0  33439-3 0  9992
2 42700  51.6244 178.4452 0005191 197.5121 162.5704 15.86331958 89438
CXBN-2                  
1 42704U 98067LM  18341.83077673  .00081120  00000-0  32546-3 0  9990
2 42704  51.6276 180.4217 0003876 175.8863 184.2173 15.85760758 89321
PHOENIX                 
1 42706U 98067LP  18341.84494892  .00036652  00000-0  21032-3 0  9997
2 42706  51.6265 185.8354 0002757 149.0759 211.0405 15.78405291 89244
X-CUBESAT               
1 42707U 98067LQ  18341.83707388  .00117939  00000-0  38488-3 0  9995
2 42707  51.6242 176.5343 0004134 191.7549 168.3361 15.89792471 89355
QBEE50-LTU-OC           
1 42708U 98067LR  18341.78071151  .00080998  00000-0  32116-3 0  9998
2 42708  51.6250 180.0452 0003431 188.5431 171.5515 15.86007011 89262
ALTAIR PATHFINDER       
1 42711U 98067LS  18341.86125294  .00018554  00000-0  15593-3 0  9998
2 42711  51.6329 201.0763 0004504 126.0982 234.0433 15.69936138 88706
SHARC                   
1 42712U 98067LT  18341.85509379  .00044758  00000-0  30109-3 0  9993
2 42712  51.6333 200.3413 0003932 148.4569 211.6667 15.74690813 88959
ZA-AEROSAT              
1 42713U 98067LU  18341.84492538  .00037115  00000-0  22834-3 0  9996
2 42713  51.6333 190.3599 0003566 141.4065 218.7191 15.76827800 88848
CSUNSAT 1               
1 42715U 98067LW  18341.81027393  .00041465  00000-0  23573-3 0  9992
2 42715  51.6314 188.6356 0004476 143.2458 216.8850 15.78546958 88864
SPACECUBE               
1 42717U 98067LY  18341.82384551  .00080497  00000-0  32324-3 0  9999
2 42717  51.6206 180.2403 0004683 194.5485 165.5385 15.85740715 88347
HOOPOE                  
1 42718U 98067LZ  18341.60962823  .00360233  69623-4  53657-3 0  9991
2 42718  51.6185 170.3810 0005842 234.1547 125.8922 16.04234831 88451
NJUST-1                 
1 42722U 98067MB  18341.87641722  .00028043  00000-0  18956-3 0  9990
2 42722  51.6359 193.4171 0006033 161.8821 293.5917 15.74807246 87873
LILACSAT-1              
1 42725U 98067ME  18341.78847353  .00053858  00000-0  26282-3 0  9994
2 42725  51.6333 185.9897 0006162 172.0917 294.3836 15.81770351 87875
NSIGHT-1                
1 42726U 98067MF  18341.82507026  .00007934  00000-0  84475-4 0  9993
2 42726  51.6371 209.9758 0005666 156.2256 203.9002 15.65041687 87561
SNUSAT-1                
1 42727U 98067MG  18341.85424349  .00056441  00000-0  27921-3 0  9992
2 42727  51.6293 185.8096 0006077 156.7225 203.4053 15.81456803 87840
POLYITAN-2-SAU          
1 42732U 98067MM  18341.81427028  .00110760  00000-0  36986-3 0  9997
2 42732  51.6264 177.9613 0005113 170.7615 189.3486 15.89354581 87839
SNUSAT-1B               
1 42733U 98067MN  18341.81873829  .00070036  00000-0  31051-3 0  9991
2 42733  51.6261 183.3136 0005579 156.2816 203.8445 15.83717739 87767
BEEAGLESAT              
1 42736U 98067MR  18341.82255444  .00042808  00000-0  23423-3 0  9992
2 42736  51.6292 187.9054 0006318 170.3529 189.7595 15.79369061 87767
UCLSAT                  
1 42765U 17036A   18341.37537854  .00001144  00000-0  52679-4 0  9993
2 42765  97.3798  38.2605 0011626 181.2003 178.9208 15.22269504 81059
LITUANICASAT-2          
1 42768U 17036D   18341.47308507  .00001799  00000-0  81523-4 0  9994
2 42768  97.3822  37.9096 0015733 173.1742 186.9711 15.22039681 80916
AALTO-1                 
1 42775U 17036L   18341.52987572  .00000668  00000-0  33127-4 0  9994
2 42775  97.3787  37.5770 0014404 171.1323 189.0170 15.21022083 80848
URSA MAIOR              
1 42776U 17036M   18341.44016735  .00000770  00000-0  37599-4 0  9991
2 42776  97.3794  37.5803 0014208 171.5019 188.6460 15.21131505 80838
COMPASS 2               
1 42777U 17036N   18341.44733169  .00001469  00000-0  66730-4 0  9994
2 42777  97.3824  38.2961 0013013 173.3243 186.8169 15.22277632 80860
DIAMOND RED             
1 42783U 17036U   18341.15948364  .00000927  00000-0  43800-4 0  9995
2 42783  97.3798  37.7960 0012239 182.6496 177.4677 15.21808159 80810
PEGASUS                 
1 42784U 17036V   18341.69854956  .00001083  00000-0  50313-4 0  9999
2 42784  97.3800  38.4580 0012191 180.5725 179.5499 15.22055302 80900
DIAMOND GREEN           
1 42785U 17036W   18341.15826500  .00000946  00000-0  44633-4 0  9990
2 42785  97.3801  37.8131 0012118 183.2701 176.8458 15.21807838 80802
DIAMOND BLUE            
1 42786U 17036X   18341.35457195  .00000907  00000-0  42934-4 0  9992
2 42786  97.3799  38.0052 0011970 182.6584 177.4591 15.21809866 80832
NUDTSAT                 
1 42787U 17036Y   18341.54153268  .00001485  00000-0  66449-4 0  9997
2 42787  97.3830  38.6994 0010186 181.4047 178.7163 15.22807471 80749
SUCHAI                  
1 42788U 17036Z   18341.16137542  .00001237  00000-0  56499-4 0  9992
2 42788  97.3803  38.1118 0011754 181.8346 178.2850 15.22390151 80909
SKCUBE                  
1 42789U 17036AA  18340.90377787  .00001163  00000-0  53424-4 0  9994
2 42789  97.3801  37.8344 0011569 182.6444 177.4733 15.22322393 80787
VZLUSAT-1               
1 42790U 17036AB  18340.93771380  .00001541  00000-0  68804-4 0  9994
2 42790  97.3811  38.1105 0011228 182.0614 178.0578 15.22816224 80802
ROBUSTA-1B              
1 42792U 17036AD  18341.44670898  .00001140  00000-0  52197-4 0  9998
2 42792  97.3800  38.4675 0011198 181.3112 178.8097 15.22481883 80889
CICERO 6                
1 42793U 17036AE  18341.46518415  .00000875  00000-0  41063-4 0  9991
2 42793  97.3788  38.4048 0010333 181.9930 178.1267 15.22221196 80952
D-SAT                   
1 42794U 17036AF  18341.13120433  .00000223  00000-0  24625-4 0  9997
2 42794  97.5690  29.0395 0128246  66.8845 294.5830 14.90981108 79493
TOKI                    
1 42820U 98067MU  18340.99655014  .00037457  00000-0  21872-3 0  9990
2 42820  51.6305 195.9240 0003619 141.7102 218.4156 15.78000922 81047
MAZAALAI (NUMSAT-1)     
1 42822U 98067MW  18341.51924851  .00033015  00000-0  19865-3 0  9994
2 42822  51.6323 194.1835 0004144 145.7204 214.4065 15.77388471 81098
BRAC ONNESHA            
1 42823U 98067MX  18341.49552265  .00032722  00000-0  19423-3 0  9992
2 42823  51.6299 194.0406 0005566 139.8910 220.2503 15.77691829 81097
NIGERIAEDUSAT-1         
1 42824U 98067MY  18340.98456213  .00035546  00000-0  21561-3 0  9995
2 42824  51.6338 197.4185 0005835 143.7961 216.3435 15.77157620 80996
CORVUS BC2              
1 42846U 17042X   18341.25281001  .00000230  00000-0  28082-4 0  9993
2 42846  97.5830 237.7187 0009281 349.1858  10.9160 14.91892873 76171
CORVUS BC1              
1 42847U 17042Y   18341.55431951  .00000086  00000-0  13800-4 0  9999
2 42847  97.5830 238.0844 0008911 347.9344  12.1660 14.91993110 76211
SILU-1 (SILKROAD 1)     
1 42903U 17021F   18341.76347875  .00047850  00000-0  21551-3 0  9994
2 42903  42.7763 349.2826 0014061  96.3668  78.7565 15.83110554 77323
MIRATA                  
1 43015U 17073C   18341.56750992  .00001295  00000-0  10598-3 0  9994
2 43015  97.7133 265.4001 0258217  67.0365 295.7867 14.78523581 56756
MAKERSAT 0              
1 43016U 17073D   18341.35480615  .00000796  00000-0  66882-4 0  9997
2 43016  97.7165 265.3665 0259954  67.8734 294.9852 14.78411838 56716
ASTERIA                 
1 43020U 98067NH  18341.86204206  .00014974  00000-0  16287-3 0  9996
2 43020  51.6410 219.3157 0003084 111.1860 248.9464 15.63682886 59621
DELLINGR (RBLE)         
1 43021U 98067NJ  18341.68899200  .00007546  00000-0  97930-4 0  9993
2 43021  51.6388 224.8478 0003153  98.9083 261.2267 15.59943062 59539
